[{"OBJECT_NAME":"STARLINK-34984","OBJECT_ID":"2025-184T","EPOCH":"2026-03-09T16:53:00.151872","MEAN_MOTION":15.05647339,"ECCENTRICITY":8.635e-5,"INCLINATION":97.6033,"RA_OF_ASC_NODE":122.6862,"ARG_OF_PERICENTER":113.8583,"MEAN_ANOMALY":246.2734,"EPHEMERIS_TYPE":0,"CLASSIFICATION_TYPE":"U","NORAD_CAT_ID":65290,"ELEMENT_SET_NO":999,"REV_AT_EPOCH":3130,"BSTAR":0.00010638319,"MEAN_MOTION_DOT":1.474e-5,"MEAN_MOTION_DDOT":0},{"OBJECT_NAME":"COSMOS 249 DEB","OBJECT_ID":"1968-091S","EPOCH":"2026-03-09T23:11:16.315584","MEAN_MOTION":14.62767046,"ECCENTRICITY":0.02830409,"INCLINATION":62.2933,"RA_OF_ASC_NODE":296.5114,"ARG_OF_PERICENTER":188.6799,"MEAN_ANOMALY":170.9327,"EPHEMERIS_TYPE":0,"CLASSIFICATION_TYPE":"U","NORAD_CAT_ID":3584,"ELEMENT_SET_NO":999,"REV_AT_EPOCH":84837,"BSTAR":0.0011832557,"MEAN_MOTION_DOT":0.00010675,"MEAN_MOTION_DDOT":0}]
